NORAD_CAT_ID,OBJECT_NAME,OBJECT_TYPE,EPOCH,MEAN_MOTION,ECCENTRICITY,INCLINATION,RA_OF_ASC_NODE,ARG_OF_PERICENTER,MEAN_ANOMALY,BSTAR,MEAN_MOTION_DOT,MEAN_MOTION_DDOT,TLE_LINE0,TLE_LINE1,TLE_LINE2,SEMIMAJOR_AXIS,PERIOD,APOGEE,PERIGEE,DECAYED
53992.0,STARLINK-5108,PAYLOAD,2023-12-06 03:22:05,15.08851458,0.0002111,53.2159,315.6653,87.2526,272.8708,7.8878e-05,9.68e-06,0.0,0 STARLINK-5108,1 53992U 22125AE  23340.14033577  .00000968  00000-0  78878-4 0  9997,2 53992  53.2159 315.6653 0002111  87.2526 272.8708 15.08851458 65054,6917.845,95.437,541.171,538.25,0.0
53992.0,STARLINK-5108,PAYLOAD,2023-12-06 08:08:14,15.08857751,0.0002175,53.2162,314.773,81.801,278.3229,0.00020507,2.979e-05,0.0,0 STARLINK-5108,1 53992U 22125AE  23340.33905466  .00002979  00000-0  20507-3 0  9992,2 53992  53.2162 314.7730 0002175  81.8010 278.3229 15.08857751 65008,6917.826,95.436,541.196,538.187,0.0
53992.0,STARLINK-5108,PAYLOAD,2023-12-06 22:26:42,15.0883606,0.0002031,53.2162,312.0952,94.5443,265.5781,-1.7202e-05,-5.62e-06,0.0,0 STARLINK-5108,1 53992U 22125AE  23340.93521866 -.00000562  00000-0 -17202-4 0  9993,2 53992  53.2162 312.0952 0002031  94.5443 265.5781 15.08836060 65097,6917.892,95.438,541.162,538.352,0.0
53992.0,STARLINK-5108,PAYLOAD,2023-12-07 03:12:52,15.08839698,0.0002714,53.2167,311.2009,119.5692,240.557,0.00015146,2.123e-05,0.0,0 STARLINK-5108,1 53992U 22125AE  23341.13393702  .00002123  00000-0  15146-3 0  9999,2 53992  53.2167 311.2009 0002714 119.5692 240.5570 15.08839698 65200,6917.881,95.438,541.624,537.869,0.0
53992.0,STARLINK-5108,PAYLOAD,2023-12-07 04:48:15,15.0883743,0.0002015,53.2163,310.9064,94.6442,265.478,0.00022476,3.29e-05,0.0,0 STARLINK-5108,1 53992U 22125AE  23341.20017996  .00003290  00000-0  22476-3 0  9995,2 53992  53.2163 310.9064 0002015  94.6442 265.4780 15.08837430 65136,6917.888,95.438,541.147,538.359,0.0
53992.0,STARLINK-5108,PAYLOAD,2023-12-08 03:03:39,15.08841134,0.0002018,53.2166,306.745,94.3667,265.7555,0.00036608,5.543e-05,0.0,0 STARLINK-5108,1 53992U 22125AE  23342.12754395  .00005543  00000-0  36608-3 0  9993,2 53992  53.2166 306.7450 0002018  94.3667 265.7555 15.08841134 65353,6917.877,95.437,541.138,538.346,0.0
53992.0,STARLINK-5108,PAYLOAD,2023-12-08 07:49:49,15.08844837,0.0001991,53.2165,305.8524,94.2143,265.9077,0.00034996,5.287e-05,0.0,0 STARLINK-5108,1 53992U 22125AE  23342.32626265  .00005287  00000-0  34996-3 0  9992,2 53992  53.2165 305.8524 0001991  94.2143 265.9077 15.08844837 65300,6917.866,95.437,541.108,538.353,0.0
53992.0,STARLINK-5108,PAYLOAD,2023-12-09 02:54:26,15.08846544,0.000201,53.2168,302.2826,95.2531,264.869,0.0002456,3.623e-05,0.0,0 STARLINK-5108,1 53992U 22125AE  23343.12114113  .00003623  00000-0  24560-3 0  9993,2 53992  53.2168 302.2826 0002010  95.2531 264.8690 15.08846544 65423,6917.86,95.437,541.116,538.335,0.0
53992.0,STARLINK-5108,PAYLOAD,2023-12-09 20:23:41,15.08845582,0.0001827,53.2179,299.0196,80.6057,279.5141,0.00015334,2.154e-05,0.0,0 STARLINK-5108,1 53992U 22125AE  23343.84978155  .00002154  00000-0  15334-3 0  9993,2 53992  53.2179 299.0196 0001827  80.6057 279.5141 15.08845582 65610,6917.863,95.437,540.992,538.464,0.0
53992.0,STARLINK-5108,PAYLOAD,2023-12-11 04:11:25,15.08823153,0.0001911,53.216,293.063,89.5786,270.5425,0.00061954,9.581e-05,0.0,0 STARLINK-5108,1 53992U 22125AE  23345.17459567  .00009581  00000-0  61954-3 0  9992,2 53992  53.2160 293.0630 0001911  89.5786 270.5425 15.08823153 65816,6917.932,95.439,541.119,538.475,0.0
53992.0,STARLINK-5108,PAYLOAD,2023-12-12 04:02:11,15.08844573,0.0001969,53.2169,288.6073,79.296,280.8254,0.0002256,3.305e-05,0.0,0 STARLINK-5108,1 53992U 22125AE  23346.16818675  .00003305  00000-0  22560-3 0  9999,2 53992  53.2169 288.6073 0001969  79.2960 280.8254 15.08844573 65968,6917.866,95.437,541.094,538.369,0.0
53992.0,STARLINK-5108,PAYLOAD,2023-12-13 02:17:35,15.08844506,0.0001998,53.2174,284.4413,80.5179,279.6039,0.00014463,2.015e-05,0.0,0 STARLINK-5108,1 53992U 22125AE  23347.09554760  .00002015  00000-0  14463-3 0  9994,2 53992  53.2174 284.4413 0001998  80.5179 279.6039 15.08844506 66105,6917.867,95.437,541.114,538.349,0.0
53992.0,STARLINK-5108,PAYLOAD,2023-12-14 02:08:22,15.08844586,0.0001892,53.2168,279.9822,88.7024,271.4185,9.6461e-05,1.248e-05,0.0,0 STARLINK-5108,1 53992U 22125AE  23348.08914600  .00001248  00000-0  96461-4 0  9993,2 53992  53.2168 279.9822 0001892  88.7024 271.4185 15.08844586 66170,6917.866,95.437,541.04,538.423,0.0
53992.0,STARLINK-5108,PAYLOAD,2023-12-15 01:59:08,15.08848722,0.0001941,53.217,275.5211,97.8509,262.2703,0.00019632,2.838e-05,0.0,0 STARLINK-5108,1 53992U 22125AE  23349.08274125  .00002838  00000-0  19632-3 0  9995,2 53992  53.2170 275.5211 0001941  97.8509 262.2703 15.08848722 66328,6917.854,95.437,541.061,538.376,0.0
53992.0,STARLINK-5108,PAYLOAD,2023-12-15 22:39:10,15.08834313,0.0001915,53.2173,271.6566,113.4069,246.7125,-3.1644e-05,-7.92e-06,0.0,0 STARLINK-5108,1 53992U 22125AE  23349.94386948 -.00000792  00000-0 -31644-4 0  9994,2 53992  53.2173 271.6566 0001915 113.4069 246.7125 15.08834313 66458,6917.898,95.438,541.088,538.438,0.0
53992.0,STARLINK-5108,PAYLOAD,2023-12-16 01:49:56,15.08833174,0.0001887,53.2171,271.0627,112.6344,247.4848,-4.8328e-05,-1.057e-05,0.0,0 STARLINK-5108,1 53992U 22125AE  23350.07635056 -.00001057  00000-0 -48328-4 0  9999,2 53992  53.2171 271.0627 0001887 112.6344 247.4848 15.08833174 66558,6917.901,95.438,541.072,538.461,0.0
53992.0,STARLINK-5108,PAYLOAD,2023-12-16 22:29:57,15.0884227,0.0001545,53.2168,267.1986,98.0433,262.0735,5.3102e-05,5.57e-06,0.0,0 STARLINK-5108,1 53992U 22125AE  23350.93746825  .00000557  00000-0  53102-4 0  9999,2 53992  53.2168 267.1986 0001545  98.0433 262.0735 15.08842270 66606,6917.873,95.437,540.807,538.67,0.0
53992.0,STARLINK-5108,PAYLOAD,2023-12-17 00:05:20,15.08845112,0.0001718,53.2165,266.9006,109.2948,250.823,9.0685e-05,1.156e-05,0.0,0 STARLINK-5108,1 53992U 22125AE  23351.00370644  .00001156  00000-0  90685-4 0  9993,2 53992  53.2165 266.9006 0001718 109.2948 250.8230 15.08845112 66693,6917.865,95.437,540.918,538.541,0.0
53992.0,STARLINK-5108,PAYLOAD,2023-12-17 22:20:44,15.08846834,0.0001467,53.2161,262.7381,95.5793,264.5367,0.0002544,3.764e-05,0.0,0 STARLINK-5108,1 53992U 22125AE  23351.93106765  .00003764  00000-0  25440-3 0  9999,2 53992  53.2161 262.7381 0001467  95.5793 264.5367 15.08846834 66757,6917.86,95.437,540.739,538.71,0.0
53992.0,STARLINK-5108,PAYLOAD,2023-12-17 23:56:07,15.08849347,0.0001556,53.2157,262.4412,95.9482,264.1687,0.00032731,4.926e-05,0.0,0 STARLINK-5108,1 53992U 22125AE  23351.99730675  .00004926  00000-0  32731-3 0  9990,2 53992  53.2157 262.4412 0001556  95.9482 264.1687 15.08849347 66766,6917.852,95.437,540.793,538.64,0.0
53992.0,STARLINK-5108,PAYLOAD,2023-12-18 22:11:31,15.08838464,0.0001878,53.2161,258.2791,115.9413,244.1773,2.419e-05,9.7e-07,0.0,0 STARLINK-5108,1 53992U 22125AE  23352.92467077  .00000097  00000-0  24190-4 0  9993,2 53992  53.2161 258.2791 0001878 115.9413 244.1773 15.08838464 66906,6917.885,95.438,541.049,538.451,0.0
53992.0,STARLINK-5108,PAYLOAD,2023-12-19 01:22:17,15.08835456,0.0001357,53.2151,257.679,86.0838,274.0309,-3.1417e-05,-7.88e-06,0.0,0 STARLINK-5108,1 53992U 22125AE  23353.05715252 -.00000788  00000-0 -31417-4 0  9998,2 53992  53.2151 257.6790 0001357  86.0838 274.0309 15.08835456 67005,6917.894,95.438,540.698,538.821,0.0
53992.0,STARLINK-5108,PAYLOAD,2023-12-19 23:37:42,15.08839752,0.0001345,53.2154,253.5157,80.3402,279.7742,0.00010315,1.354e-05,0.0,0 STARLINK-5108,1 53992U 22125AE  23353.98451497  .00001354  00000-0  10315-3 0  9999,2 53992  53.2154 253.5157 0001345  80.3402 279.7742 15.08839752 67063,6917.881,95.438,540.677,538.816,0.0
53992.0,STARLINK-5108,PAYLOAD,2023-12-20 21:53:05,15.08846771,0.0001145,53.2144,249.3547,88.8723,271.24,0.000317,4.762e-05,0.0,0 STARLINK-5108,1 53992U 22125AE  23354.91187412  .00004762  00000-0  31700-3 0  9993,2 53992  53.2144 249.3547 0001145  88.8723 271.2400 15.08846771 67208,6917.86,95.437,540.517,538.933,0.0
53992.0,STARLINK-5108,PAYLOAD,2023-12-20 23:28:28,15.08850213,0.0001196,53.2142,249.0576,83.16,276.9529,0.00037969,5.762e-05,0.0,0 STARLINK-5108,1 53992U 22125AE  23354.97811321  .00005762  00000-0  37969-3 0  9996,2 53992  53.2142 249.0576 0001196  83.1600 276.9529 15.08850213 67292,6917.849,95.437,540.542,538.887,0.0
53992.0,STARLINK-5108,PAYLOAD,2023-12-21 21:43:52,15.08846658,0.0001299,53.2151,244.8936,82.9907,277.1233,0.00017343,2.474e-05,0.0,0 STARLINK-5108,1 53992U 22125AE  23355.90547371  .00002474  00000-0  17343-3 0  9992,2 53992  53.2151 244.8936 0001299  82.9907 277.1233 15.08846658 67356,6917.86,95.437,540.624,538.826,0.0
53992.0,STARLINK-5108,PAYLOAD,2023-12-21 23:19:15,15.08847874,0.0001293,53.2146,244.5967,87.8633,272.2507,0.00019901,2.881e-05,0.0,0 STARLINK-5108,1 53992U 22125AE  23355.97171291  .00002881  00000-0  19901-3 0  9997,2 53992  53.2146 244.5967 0001293  87.8633 272.2507 15.08847874 67446,6917.856,95.437,540.616,538.827,0.0
53992.0,STARLINK-5108,PAYLOAD,2023-12-22 19:59:16,15.08841495,0.0001372,53.2148,240.7305,86.9261,273.1888,6.5293e-05,7.51e-06,0.0,0 STARLINK-5108,1 53992U 22125AE  23356.83283529  .00000751  00000-0  65293-4 0  9991,2 53992  53.2148 240.7305 0001372  86.9261 273.1888 15.08841495 67576,6917.876,95.437,540.69,538.792,0.0
53992.0,STARLINK-5108,PAYLOAD,2023-12-22 21:34:40,15.0884101,0.0001381,53.215,240.4329,84.263,275.8519,4.4384e-05,4.19e-06,0.0,0 STARLINK-5108,1 53992U 22125AE  23356.89907520  .00000419  00000-0  44384-4 0  9990,2 53992  53.2150 240.4329 0001381  84.2630 275.8519 15.08841010 67509,6917.877,95.437,540.698,538.787,0.0
53992.0,STARLINK-5108,PAYLOAD,2023-12-22 23:10:02,15.08847156,0.000143,53.2149,240.1332,108.2147,251.9001,5.4887e-05,5.86e-06,0.0,0 STARLINK-5108,1 53992U 22125AE  23356.96530984  .00000586  00000-0  54887-4 0  9998,2 53992  53.2149 240.1332 0001430 108.2147 251.9001 15.08847156 67590,6917.859,95.437,540.713,538.734,0.0
